{"type": "FeatureCollection", "features": [ {"type": "Feature", "properties": {"norad_id": 59600, "name": "GSAT0227 (GALILEO 30)", "group": "gnss", "lat": 54.01789280997372, "lon": -148.22388835202412, "alt_km": 23205.833827157654, "timestamp": "2025-12-02T15:49:07.432515+00:00", "meta": {"OBJECT_NAME": "GSAT0227 (GALILEO 30)", "OBJECT_ID": "2024-079C", "EPOCH": "2025-11-30T03:38:35.461248", "MEAN_MOTION": 1.70474636, "ECCENTRICITY": 0.00034867, "INCLINATION": 54.9888, "RA_OF_ASC_NODE": 106.6465, "ARG_OF_PERICENTER": 113.1426, "MEAN_ANOMALY": 246.8704, "EPHEMERIS_TYPE": 0, "CLASSIFICATION_TYPE": "U", "NORAD_CAT_ID": 59600, "ELEMENT_SET_NO": 999, "REV_AT_EPOCH": 997, "BSTAR": 0, "MEAN_MOTION_DOT": 4.8e-07, "MEAN_MOTION_DDOT": 0}, "tle": {"line1": "1 59600U 24079C   25334.15179932  .00000048  00000+0  00000+0 0  9996", "line2": "2 59600  54.9888 106.6465 0003486 113.1426 246.8704  1.70474636  9975"}}, "geometry": {"type": "Point", "coordinates": [-148.22388835202412, 54.01789280997372]}}, {"type": "Feature", "properties": {"norad_id": 61182, "name": "GSAT0232 (GALILEO 32)", "group": "gnss", "lat": -48.97953173437959, "lon": 173.87001535180923, "alt_km": 23226.291263268024, "timestamp": "2025-12-02T15:49:07.432527+00:00", "meta": {"OBJECT_NAME": "GSAT0232 (GALILEO 32)", "OBJECT_ID": "2024-167A", "EPOCH": "2025-11-29T15:16:36.414048", "MEAN_MOTION": 1.70473184, "ECCENTRICITY": 0.00022439, "INCLINATION": 55.2459, "RA_OF_ASC_NODE": 226.7912, "ARG_OF_PERICENTER": 216.1557, "MEAN_ANOMALY": 22.2275, "EPHEMERIS_TYPE": 0, "CLASSIFICATION_TYPE": "U", "NORAD_CAT_ID": 61182, "ELEMENT_SET_NO": 999, "REV_AT_EPOCH": 747, "BSTAR": 0, "MEAN_MOTION_DOT": 2.7e-07, "MEAN_MOTION_DDOT": 0}, "tle": {"line1": "1 61182U 24167A   25333.63653257  .00000027  00000+0  00000+0 0  9998", "line2": "2 61182  55.2459 226.7912 0002243 216.1557  22.2275  1.70473184  7470"}}, "geometry": {"type": "Point", "coordinates": [173.87001535180923, -48.97953173437959]}}, {"type": "Feature", "properties": {"norad_id": 61183, "name": "GSAT0226 (GALILEO 31)", "group": "gnss", "lat": 36.22349425697887, "lon": -102.76414750950116, "alt_km": 23218.404626823714, "timestamp": "2025-12-02T15:49:07.432541+00:00", "meta": {"OBJECT_NAME": "GSAT0226 (GALILEO 31)", "OBJECT_ID": "2024-167B", "EPOCH": "2025-11-26T08:32:06.516672", "MEAN_MOTION": 1.70473481, "ECCENTRICITY": 6.079e-05, "INCLINATION": 55.246, "RA_OF_ASC_NODE": 226.8867, "ARG_OF_PERICENTER": 154.246, "MEAN_ANOMALY": 343.2327, "EPHEMERIS_TYPE": 0, "CLASSIFICATION_TYPE": "U", "NORAD_CAT_ID": 61183, "ELEMENT_SET_NO": 999, "REV_AT_EPOCH": 739, "BSTAR": 0, "MEAN_MOTION_DOT": 3e-07, "MEAN_MOTION_DDOT": 0}, "tle": {"line1": "1 61183U 24167B   25330.35563098  .00000030  00000+0  00000+0 0  9992", "line2": "2 61183  55.2460 226.8867 0000607 154.2460 343.2327  1.70473481  7395"}}, "geometry": {"type": "Point", "coordinates": [-102.76414750950116, 36.22349425697887]}}, {"type": "Feature", "properties": {"norad_id": 61186, "name": "BEIDOU-3 M25 (C47)", "group": "gnss", "lat": 3.008443087345349, "lon": 126.91434397501516, "alt_km": 21535.121095719234, "timestamp": "2025-12-02T15:49:07.432553+00:00", "meta": {"OBJECT_NAME": "BEIDOU-3 M25 (C47)", "OBJECT_ID": "2024-168B", "EPOCH": "2025-12-01T06:18:53.159328", "MEAN_MOTION": 1.86229803, "ECCENTRICITY": 0.000556, "INCLINATION": 54.6528, "RA_OF_ASC_NODE": 309.1184, "ARG_OF_PERICENTER": 293.396, "MEAN_ANOMALY": 26.9682, "EPHEMERIS_TYPE": 0, "CLASSIFICATION_TYPE": "U", "NORAD_CAT_ID": 61186, "ELEMENT_SET_NO": 999, "REV_AT_EPOCH": 809, "BSTAR": 0, "MEAN_MOTION_DOT": -5.7e-07, "MEAN_MOTION_DDOT": 0}, "tle": {"line1": "1 61186U 24168B   25335.26311527 -.00000057  00000+0  00000+0 0  9999", "line2": "2 61186  54.6528 309.1184 0005560 293.3960  26.9682  1.86229803  8097"}}, "geometry": {"type": "Point", "coordinates": [126.91434397501516, 3.008443087345349]}}, {"type": "Feature", "properties": {"norad_id": 61187, "name": "BEIDOU-3 M27 (C49)", "group": "gnss", "lat": -37.812718555096616, "lon": -84.38225979270995, "alt_km": 21526.57792616422, "timestamp": "2025-12-02T15:49:07.432566+00:00", "meta": {"OBJECT_NAME": "BEIDOU-3 M27 (C49)", "OBJECT_ID": "2024-168C", "EPOCH": "2025-12-01T06:11:08.494080", "MEAN_MOTION": 1.86229947, "ECCENTRICITY": 0.0002285, "INCLINATION": 54.6482, "RA_OF_ASC_NODE": 309.1022, "ARG_OF_PERICENTER": 327.2674, "MEAN_ANOMALY": 124.4273, "EPHEMERIS_TYPE": 0, "CLASSIFICATION_TYPE": "U", "NORAD_CAT_ID": 61187, "ELEMENT_SET_NO": 999, "REV_AT_EPOCH": 557, "BSTAR": 0, "MEAN_MOTION_DOT": -5.7e-07, "MEAN_MOTION_DDOT": 0}, "tle": {"line1": "1 61187U 24168C   25335.25773720 -.00000057  00000+0  00000+0 0  9996", "line2": "2 61187  54.6482 309.1022 0002285 327.2674 124.4273  1.86229947  5577"}}, "geometry": {"type": "Point", "coordinates": [-84.38225979270995, -37.812718555096616]}}, {"type": "Feature", "properties": {"norad_id": 62339, "name": "GPS BIII-7  (PRN 01)", "group": "gnss", "lat": -1.4143809963087273, "lon": 163.14646814131265, "alt_km": 20211.649156789423, "timestamp": "2025-12-02T15:49:07.432580+00:00", "meta": {"OBJECT_NAME": "GPS BIII-7  (PRN 01)", "OBJECT_ID": "2024-242A", "EPOCH": "2025-12-02T03:41:48.732000", "MEAN_MOTION": 2.00567227, "ECCENTRICITY": 0.00116442, "INCLINATION": 54.9268, "RA_OF_ASC_NODE": 342.1698, "ARG_OF_PERICENTER": 343.3913, "MEAN_ANOMALY": 193.6606, "EPHEMERIS_TYPE": 0, "CLASSIFICATION_TYPE": "U", "NORAD_CAT_ID": 62339, "ELEMENT_SET_NO": 999, "REV_AT_EPOCH": 730, "BSTAR": 0, "MEAN_MOTION_DOT": -6.2e-07, "MEAN_MOTION_DDOT": 0}, "tle": {"line1": "1 62339U 24242A   25336.15403625 -.00000062  00000+0  00000+0 0  9999", "line2": "2 62339  54.9268 342.1698 0011644 343.3913 193.6606  2.00567227  7306"}}, "geometry": {"type": "Point", "coordinates": [163.14646814131265, -1.4143809963087273]}}, {"type": "Feature", "properties": {"norad_id": 62850, "name": "NVS-02 (IRNSS-1K)", "group": "gnss", "lat": -6.26588277888707, "lon": 167.90602640787006, "alt_km": 37158.74720364246, "timestamp": "2025-12-02T15:49:07.432592+00:00", "meta": {"OBJECT_NAME": "NVS-02 (IRNSS-1K)", "OBJECT_ID": "2025-020A", "EPOCH": "2025-12-01T23:29:22.921728", "MEAN_MOTION": 2.17583262, "ECCENTRICITY": 0.73482287, "INCLINATION": 21.0115, "RA_OF_ASC_NODE": 331.5487, "ARG_OF_PERICENTER": 19.2558, "MEAN_ANOMALY": 358.0951, "EPHEMERIS_TYPE": 0, "CLASSIFICATION_TYPE": "U", "NORAD_CAT_ID": 62850, "ELEMENT_SET_NO": 999, "REV_AT_EPOCH": 668, "BSTAR": 0.00023935769, "MEAN_MOTION_DOT": 5.49e-06, "MEAN_MOTION_DDOT": 0}, "tle": {"line1": "1 62850U 25020A   25335.97873752  .00000549  00000+0  23936-3 0  9999", "line2": "2 62850  21.0115 331.5487 7348228  19.2558 358.0951  2.17583262  6685"}}, "geometry": {"type": "Point", "coordinates": [167.90602640787006, -6.26588277888707]}}, {"type": "Feature", "properties": {"norad_id": 63130, "name": "COSMOS 2584 (704K)", "group": "gnss", "lat": 60.77238383154273, "lon": -157.0109676600439, "alt_km": 19128.670310317157, "timestamp": "2025-12-02T15:49:07.432606+00:00", "meta": {"OBJECT_NAME": "COSMOS 2584 (704K)", "OBJECT_ID": "2025-042A", "EPOCH": "2025-11-26T10:06:10.904256", "MEAN_MOTION": 2.13103062, "ECCENTRICITY": 0.00075218, "INCLINATION": 64.9668, "RA_OF_ASC_NODE": 79.7019, "ARG_OF_PERICENTER": 212.3772, "MEAN_ANOMALY": 147.585, "EPHEMERIS_TYPE": 0, "CLASSIFICATION_TYPE": "U", "NORAD_CAT_ID": 63130, "ELEMENT_SET_NO": 999, "REV_AT_EPOCH": 572, "BSTAR": 0, "MEAN_MOTION_DOT": 1.8e-07, "MEAN_MOTION_DDOT": 0}, "tle": {"line1": "1 63130U 25042A   25330.42095954  .00000018  00000+0  00000+0 0  9994", "line2": "2 63130  64.9668  79.7019 0007521 212.3772 147.5850  2.13103062  5728"}}, "geometry": {"type": "Point", "coordinates": [-157.0109676600439, 60.77238383154273]}}, {"type": "Feature", "properties": {"norad_id": 64202, "name": "GPS BIII-8  (PRN 21)", "group": "gnss", "lat": 9.471447070270095, "lon": 45.744702792450816, "alt_km": 20176.614328293126, "timestamp": "2025-12-02T15:49:07.432618+00:00", "meta": {"OBJECT_NAME": "GPS BIII-8  (PRN 21)", "OBJECT_ID": "2025-116A", "EPOCH": "2025-11-27T15:37:05.200896", "MEAN_MOTION": 2.0055919, "ECCENTRICITY": 0.00048631, "INCLINATION": 55.0944, "RA_OF_ASC_NODE": 39.2516, "ARG_OF_PERICENTER": 304.421, "MEAN_ANOMALY": 50.9436, "EPHEMERIS_TYPE": 0, "CLASSIFICATION_TYPE": "U", "NORAD_CAT_ID": 64202, "ELEMENT_SET_NO": 999, "REV_AT_EPOCH": 382, "BSTAR": 0, "MEAN_MOTION_DOT": -6e-07, "MEAN_MOTION_DDOT": 0}, "tle": {"line1": "1 64202U 25116A   25331.65075464 -.00000060  00000+0  00000+0 0  9995", "line2": "2 64202  55.0944  39.2516 0004863 304.4210  50.9436  2.00559190  3825"}}, "geometry": {"type": "Point", "coordinates": [45.744702792450816, 9.471447070270095]}}, {"type": "Feature", "properties": {"norad_id": 65590, "name": "COSMOS 2596 (708K)", "group": "gnss", "lat": -39.05068153944353, "lon": 164.33505766562757, "alt_km": 19128.95241372522, "timestamp": "2025-12-02T15:49:07.432630+00:00", "meta": {"OBJECT_NAME": "COSMOS 2596 (708K)", "OBJECT_ID": "2025-206B", "EPOCH": "2025-12-01T01:16:47.699904", "MEAN_MOTION": 2.13100271, "ECCENTRICITY": 0.00140756, "INCLINATION": 64.7507, "RA_OF_ASC_NODE": 321.8815, "ARG_OF_PERICENTER": 304.7151, "MEAN_ANOMALY": 127.6712, "EPHEMERIS_TYPE": 0, "CLASSIFICATION_TYPE": "U", "NORAD_CAT_ID": 65590, "ELEMENT_SET_NO": 999, "REV_AT_EPOCH": 168, "BSTAR": 0, "MEAN_MOTION_DOT": -2.6e-07, "MEAN_MOTION_DDOT": 0}, "tle": {"line1": "1 65590U 25206B   25335.05332986 -.00000026  00000+0  00000+0 0  9991", "line2": "2 65590  64.7507 321.8815 0014075 304.7151 127.6712  2.13100271  1680"}}, "geometry": {"type": "Point", "coordinates": [164.33505766562757, -39.05068153944353]}}]}